COSMOS 2251 DEB         
1 34433U 93036SA  26087.81122129  .00001290  00000+0  62616-3 0  9992
2 34433  74.0102 326.9458 0150378  81.0007 280.8119 14.13542542874481
COSMOS 2251 DEB         
1 34434U 93036SB  26087.74400779  .00005066  00000+0  29687-2 0  9990
2 34434  74.0597 189.6654 0279259 301.2496 214.3657 13.90772526854399
COSMOS 2251 DEB         
1 34446U 93036SP  26087.63534073  .00000434  00000+0  11889-3 0  9996
2 34446  74.0413 218.6699 0051500 327.6892  32.1115 14.49477364902284
COSMOS 2251 DEB         
1 34449U 93036SS  26087.45153579  .00046092  00000+0  33565-2 0  9991
2 34449  74.0285 215.9371 0020554 243.9254 186.9715 15.03373116902777
COSMOS 2251 DEB         
1 34451U 93036SU  26087.44210405  .00054743  00000+0  38506-2 0  9997
2 34451  74.0422 233.1283 0020143 235.7583 124.1698 15.04632632902209
COSMOS 2251 DEB         
1 34452U 93036SV  26087.33314910  .00017933  00000+0  90231-3 0  9996
2 34452  74.0288 323.5242 0058375  12.2608 347.9991 15.15672973922604
COSMOS 2251 DEB         
1 34454U 93036SX  26087.38904937  .00000634  00000+0  21241-3 0  9992
2 34454  74.0563  83.0401 0033931 123.1949 237.2468 14.38980191895874
COSMOS 2251 DEB         
1 34459U 93036TC  26087.34899827  .00000644  00000+0  38269-3 0  9993
2 34459  74.0773  71.4851 0189738 116.6554 245.4151 14.00682051871909
COSMOS 2251 DEB         
1 34464U 93036TH  26087.40668547  .00407809  00000+0  47887-2 0  9998
2 34464  73.9758 209.2993 0019715 333.5397  26.4812 15.59839235914661
COSMOS 2251 DEB         
1 34468U 93036TM  26087.57092414  .00000871  00000+0  23449-3 0  9991
2 34468  74.0108 278.8867 0074494  37.5761 323.0570 14.47888852899933
COSMOS 2251 DEB         
1 34472U 93036TR  26087.54409307  .00000661  00000+0  52288-3 0  9996
2 34472  74.0819 284.0879 0329629  30.6618 331.3310 13.70688696851769
COSMOS 2251 DEB         
1 34474U 93036TT  26087.58877329  .00002535  00000+0  12694-2 0  9993
2 34474  74.0767 141.2458 0200478 191.5003 330.6983 14.07273572869979
COSMOS 2251 DEB         
1 34476U 93036TV  26087.53641461  .00006126  00000+0  38026-2 0  9993
2 34476  74.0047 263.9939 0317865 100.5975 263.1115 13.83127909851002
COSMOS 2251 DEB         
1 34477U 93036TW  26087.51782091  .00002787  00000+0  59541-3 0  9992
2 34477  73.9768 227.8012 0074497  28.5397  87.9029 14.57595374901661
COSMOS 2251 DEB         
1 34478U 93036TX  26087.62119885  .00080826  00000+0  33907-2 0  9997
2 34478  74.0404 146.7713 0034347 323.1829 162.2286 15.22551004905764
COSMOS 2251 DEB         
1 34481U 93036UA  26087.54354747  .00001052  00000+0  38414-3 0  9993
2 34481  73.9785 219.5477 0069814   7.6591 116.8805 14.32918909889642
COSMOS 2251 DEB         
1 34482U 93036UB  26087.58050789  .00016286  00000+0  25518-2 0  9992
2 34482  74.0376  18.1474 0038320  55.0216 120.8665 14.72197764897437
COSMOS 2251 DEB         
1 34544U 93036UE  26087.27383900  .00000971  00000+0  90774-3 0  9992
2 34544  73.9177  33.1631 0380498  42.0390 104.5949 13.54857528843110
COSMOS 2251 DEB         
1 34546U 93036UG  26087.36411920  .00002250  00000+0  63851-3 0  9996
2 34546  74.0306  52.1503 0019534 107.6155  45.9141 14.45924033895525
COSMOS 2251 DEB         
1 34547U 93036UH  26087.46785308  .00009017  00000+0  13461-2 0  9991
2 34547  74.0283 254.4641 0016954 306.8293  53.1325 14.74816107900794
COSMOS 2251 DEB         
1 34553U 93036UP  26087.86172498  .00005189  00000+0  11073-2 0  9995
2 34553  74.0276 349.7761 0016852  44.3467  73.8828 14.59046841896433
COSMOS 2251 DEB         
1 34554U 93036UQ  26087.02831213  .00000647  00000+0  22107-3 0  9996
2 34554  74.0355 105.0882 0022368 150.1269 239.2836 14.38162596892698
COSMOS 2251 DEB         
1 34556U 93036US  26087.62646234  .00018353  00000+0  23378-2 0  9994
2 34556  74.0139 276.1197 0006240 308.2674 117.4307 14.81498674898958
COSMOS 2251 DEB         
1 34560U 93036UW  26087.67591965  .00010739  00000+0  15933-2 0  9992
2 34560  74.0162 295.3034 0012582 353.5379  83.1120 14.75087985898126
COSMOS 2251 DEB         
1 34563U 93036UZ  26087.74620582  .00001580  00000+0  44185-3 0  9997
2 34563  74.0406   5.7225 0011845  78.8883 309.8465 14.46933844897304
COSMOS 2251 DEB         
1 34564U 93036VA  26087.67547414  .00000815  00000+0  26186-3 0  9993
2 34564  74.0334  41.9785 0017942 127.6553 289.7840 14.40891954895321
COSMOS 2251 DEB         
1 34567U 93036VD  26087.71464721  .00000388  00000+0  17490-3 0  9993
2 34567  74.0430 326.0306 0073141  13.7385  42.2026 14.24137306886333
COSMOS 2251 DEB         
1 34569U 93036VF  26087.54922834  .00001079  00000+0  41386-3 0  9999
2 34569  73.9933   6.7440 0158032 171.6931 245.3038 14.25088890884753
COSMOS 2251 DEB         
1 34570U 93036VG  26087.61909735  .00000849  00000+0  50654-3 0  9996
2 34570  73.9597  34.1011 0192243 254.1365 292.5592 14.00042945870826
COSMOS 2251 DEB         
1 34571U 93036VH  26087.12849024  .00007818  00000+0  19301-2 0  9993
2 34571  74.0430 344.5461 0059138 354.4951   5.5552 14.51176333888217
COSMOS 2251 DEB         
1 34572U 93036VJ  26086.96817536  .00005469  00000+0  13266-2 0  9992
2 34572  74.0084 277.2147 0060400 326.3000 184.6014 14.52049970889044
COSMOS 2251 DEB         
1 34574U 93036VL  26087.76985735  .00008878  00000+0  13577-2 0  9992
2 34574  74.0683 197.4430 0065435 193.2928 293.5805 14.72415709903383
COSMOS 2251 DEB         
1 34576U 93036VN  26087.66749615  .00002683  00000+0  61286-3 0  9997
2 34576  74.0336 297.3806 0006930  49.2544  16.2889 14.56230527900087
COSMOS 2251 DEB         
1 34579U 93036VR  26087.29304947  .00001645  00000+0  47051-3 0  9995
2 34579  74.0545  27.3171 0024908  71.6173  81.7873 14.45686789896997
COSMOS 2251 DEB         
1 34582U 93036VU  26087.41509426  .00001641  00000+0  48282-3 0  9995
2 34582  74.0173  75.7667 0048616 165.1535 195.1063 14.43823533894726
COSMOS 2251 DEB         
1 34588U 93036WA  26087.67950042  .00001355  00000+0  41722-3 0  9997
2 34588  74.0414  71.8930 0016539 106.3089  71.6059 14.42364452894777
COSMOS 2251 DEB         
1 34589U 93036WB  26087.69831047  .00001147  00000+0  79084-3 0  9994
2 34589  73.9238 235.4317 0250309 158.3911 215.8195 13.86303193861806
COSMOS 2251 DEB         
1 34590U 93036WC  26087.53961262  .00000468  00000+0  11216-3 0  9990
2 34590  74.0418 122.3910 0070312 225.9443 286.9522 14.54973339906598
COSMOS 2251 DEB         
1 34609U 93036WE  26086.76583425  .00001998  00000+0  82119-3 0  9995
2 34609  73.7299 274.6888 0143253 117.9018 260.8917 14.22238212881253
COSMOS 2251 DEB         
1 34610U 93036WF  26087.67861493  .00001973  00000+0  10162-2 0  9993
2 34610  74.0167  76.4164 0181048 183.9154 176.0581 14.07719940870502
COSMOS 2251 DEB         
1 34611U 93036WG  26087.63141155  .00012442  00000+0  19941-2 0  9993
2 34611  74.0510 255.6722 0022517 269.8061 209.7236 14.71594053899477
COSMOS 2251 DEB         
1 34613U 93036WJ  26086.99030481  .00003206  00000+0  12343-2 0  9999
2 34613  73.9615  87.3171 0115428 254.8196 136.4292 14.27133258879640
COSMOS 2251 DEB         
1 34614U 93036WK  26087.32102009  .00006391  00000+0  25344-2 0  9997
2 34614  73.8772 153.4129 0182446 129.9448 350.7000 14.20314937862646
COSMOS 2251 DEB         
1 34615U 93036WL  26087.52387468  .00000241  00000+0  24012-3 0  9994
2 34615  74.0030 124.4820 0399412   9.3265 138.8467 13.52338513842453
COSMOS 2251 DEB         
1 34619U 93036WQ  26087.78946048  .00001421  00000+0  25506-3 0  9991
2 34619  74.0469 356.0906 0091875  63.8695 297.1889 14.64998541908519
COSMOS 2251 DEB         
1 34620U 93036WR  26086.86197733  .00012094  00000+0  29128-2 0  9991
2 34620  74.0519  22.1404 0071482  33.2412 327.3208 14.51750258883511
COSMOS 2251 DEB         
1 34622U 93036WT  26087.85506080  .00001104  00000+0  47787-3 0  9994
2 34622  74.0390 116.5449 0106197 176.6063   0.6852 14.22476456879685
COSMOS 2251 DEB         
1 34626U 93036WX  26087.83990822  .00004370  00000+0  67164-3 0  9996
2 34626  74.0458 117.3670 0027833 188.3973 351.3949 14.73589830907062
COSMOS 2251 DEB         
1 34634U 93036XF  26087.57719802  .00001527  00000+0  34849-3 0  9998
2 34634  74.0520 194.5314 0046504 273.7581  97.8908 14.56043094903222
COSMOS 2251 DEB         
1 34635U 93036XG  26087.83504881  .00007247  00000+0  12072-2 0  9995
2 34635  74.0431 225.4057 0030174 267.2422 252.9568 14.69888853747776
COSMOS 2251 DEB         
1 34637U 93036XJ  26087.86119601  .00003413  00000+0  68867-3 0  9997
2 34637  74.0474 258.6062 0050068 300.5484 185.6718 14.61060568900768
COSMOS 2251 DEB         
1 34641U 93036XN  26087.40912941  .00004488  00000+0  10965-2 0  9998
2 34641  73.8371 240.0312 0016667 139.1803 251.6482 14.52808119897902
COSMOS 2251 DEB         
1 34642U 93036XP  26087.47643344  .00001648  00000+0  95203-3 0  9998
2 34642  74.0033 156.5876 0209941 311.4486  65.7989 13.99373739867726
COSMOS 2251 DEB         
1 34671U 93036XR  26087.56414404  .00007630  00000+0  13054-2 0  9993
2 34671  74.0255 289.6537 0009966 343.5130  47.9870 14.68967760898504
COSMOS 2251 DEB         
1 34672U 93036XS  26086.44333656  .00000480  00000+0  17150-3 0  9997
2 34672  74.0314 113.1961 0024013 167.8617 259.3806 14.36577593666811
COSMOS 2251 DEB         
1 34678U 93036XY  26087.49742094  .00000029  00000+0  21207-4 0  9997
2 34678  74.0381 173.4225 0025789 201.0904 174.7152 14.30083976888916
COSMOS 2251 DEB         
1 34680U 93036YA  26086.83240104  .00003890  00000+0  78445-3 0  9996
2 34680  74.0419 289.0034 0005752 353.4343  26.2912 14.61810708898630
COSMOS 2251 DEB         
1 34681U 93036YB  26087.37958280  .00009635  00000+0  11032-2 0  9999
2 34681  74.0604  81.1217 0020777 122.1843   6.6591 14.85902353908384
COSMOS 2251 DEB         
1 34682U 93036YC  26086.86274439  .00003114  00000+0  65771-3 0  9996
2 34682  74.0375 242.6415 0018245 343.0950 167.4364 14.59697952902198
